NORAD_CAT_ID,OBJECT_NAME,OBJECT_TYPE,EPOCH,MEAN_MOTION,ECCENTRICITY,INCLINATION,RA_OF_ASC_NODE,ARG_OF_PERICENTER,MEAN_ANOMALY,BSTAR,MEAN_MOTION_DOT,MEAN_MOTION_DDOT,TLE_LINE0,TLE_LINE1,TLE_LINE2,SEMIMAJOR_AXIS,PERIOD,APOGEE,PERIGEE,DECAYED
55924.0,STARLINK-5849,PAYLOAD,2023-11-03 08:13:27,14.9832903,0.0002249,69.9995,286.2999,271.947,88.1431,-2.4413e-06,-1.22e-06,0.0,0 STARLINK-5849,1 55924U 23037L   23307.34268198 -.00000122  00000-0 -24413-5 0  9992,2 55924  69.9995 286.2999 0002249 271.9470  88.1431 14.98329030 35895,6950.196,96.107,573.624,570.498,0.0
55924.0,STARLINK-5849,PAYLOAD,2023-11-03 16:14:08,14.98327663,0.0002844,70.0,285.4586,270.4274,89.6559,-4.7185e-05,-6.56e-06,0.0,0 STARLINK-5849,1 55924U 23037L   23307.67648282 -.00000656  00000-0 -47185-4 0  9996,2 55924  70.0000 285.4586 0002844 270.4274  89.6559 14.98327663 35601,6950.2,96.107,574.042,570.088,0.0
55924.0,STARLINK-5849,PAYLOAD,2023-11-04 08:15:28,14.98332342,0.0002774,69.9991,283.7751,262.6407,97.4437,-2.671e-06,-1.25e-06,0.0,0 STARLINK-5849,1 55924U 23037L   23308.34407834 -.00000125  00000-0 -26710-5 0  9990,2 55924  69.9991 283.7751 0002774 262.6407  97.4437 14.98332342 36046,6950.186,96.107,573.979,570.123,0.0
55924.0,STARLINK-5849,PAYLOAD,2023-11-04 16:16:08,14.98331174,0.0002745,69.9999,282.9334,276.0703,84.0143,-4.4731e-05,-6.27e-06,0.0,0 STARLINK-5849,1 55924U 23037L   23308.67788074 -.00000627  00000-0 -44731-4 0  9993,2 55924  69.9999 282.9334 0002745 276.0703  84.0143 14.98331174 35753,6950.189,96.107,573.962,570.146,0.0
55924.0,STARLINK-5849,PAYLOAD,2023-11-05 08:17:28,14.98336862,0.0002895,69.999,281.2507,268.9453,91.1374,0.00010845,1.201e-05,0.0,0 STARLINK-5849,1 55924U 23037L   23309.34547180  .00001201  00000-0  10845-3 0  9994,2 55924  69.9990 281.2507 0002895 268.9453  91.1374 14.98336862 36199,6950.172,96.107,574.049,570.025,0.0
55924.0,STARLINK-5849,PAYLOAD,2023-11-05 22:42:41,14.98329878,0.0002739,69.9998,279.7373,267.7568,92.3278,3.7721e-05,3.57e-06,0.0,0 STARLINK-5849,1 55924U 23037L   23309.94631741  .00000357  00000-0  37721-4 0  9991,2 55924  69.9998 279.7373 0002739 267.7568  92.3278 14.98329878 35948,6950.193,96.107,573.962,570.155,0.0
55924.0,STARLINK-5849,PAYLOAD,2023-11-06 03:31:05,14.98331574,0.0002727,70.0001,279.2321,267.6489,92.4358,5.5045e-05,5.64e-06,0.0,0 STARLINK-5849,1 55924U 23037L   23310.14659551  .00000564  00000-0  55045-4 0  9993,2 55924  70.0001 279.2321 0002727 267.6489  92.4358 14.98331574 36310,6950.188,96.107,573.948,570.158,0.0
55924.0,STARLINK-5849,PAYLOAD,2023-11-06 08:19:29,14.98336231,0.0002473,70.0003,278.7282,260.2028,99.8852,0.0001219,1.362e-05,0.0,0 STARLINK-5849,1 55924U 23037L   23310.34686993  .00001362  00000-0  12190-3 0  9995,2 55924  70.0003 278.7282 0002473 260.2028  99.8852 14.98336231 36346,6950.174,96.107,573.757,570.32,0.0
55924.0,STARLINK-5849,PAYLOAD,2023-11-06 14:44:02,14.98327562,0.0002463,70.0016,278.0526,267.9913,92.0964,-0.0001551,-1.943e-05,0.0,0 STARLINK-5849,1 55924U 23037L   23310.61392179 -.00001943  00000-0 -15510-3 0  9991,2 55924  70.0016 278.0526 0002463 267.9913  92.0964 14.98327562 36380,6950.2,96.107,573.777,570.354,0.0
55924.0,STARLINK-5849,PAYLOAD,2023-11-06 22:44:45,14.98302338,0.0003018,69.9999,277.2108,266.9775,93.1038,-0.00036595,-4.454e-05,0.0,0 STARLINK-5849,1 55924U 23037L   23310.94774595 -.00004454  00000-0 -36595-3 0  9999,2 55924  69.9999 277.2108 0003018 266.9775  93.1038 14.98302338 36092,6950.278,96.109,574.241,570.046,0.0
55924.0,STARLINK-5849,PAYLOAD,2023-11-07 03:33:09,14.98306641,0.00027,69.9996,276.706,268.2858,91.7992,-0.00028863,-3.533e-05,0.0,0 STARLINK-5849,1 55924U 23037L   23311.14802427 -.00003533  00000-0 -28863-3 0  9994,2 55924  69.9996 276.7060 0002700 268.2858  91.7992 14.98306641 36469,6950.265,96.108,574.007,570.254,0.0
55924.0,STARLINK-5849,PAYLOAD,2023-11-07 08:21:33,14.98312633,0.0002613,69.9997,276.2016,263.8377,96.2484,-0.00024555,-3.02e-05,0.0,0 STARLINK-5849,1 55924U 23037L   23311.34830125 -.00003020  00000-0 -24555-3 0  9997,2 55924  69.9997 276.2016 0002613 263.8377  96.2484 14.98312633 36493,6950.247,96.108,573.928,570.295,0.0
55924.0,STARLINK-5849,PAYLOAD,2023-11-07 14:46:04,14.98327487,0.0002996,69.9997,275.5269,267.5459,92.5357,-0.00025187,-3.097e-05,0.0,0 STARLINK-5849,1 55924U 23037L   23311.61533266 -.00003097  00000-0 -25187-3 0  9999,2 55924  69.9997 275.5269 0002996 267.5459  92.5357 14.98327487 36537,6950.201,96.107,574.148,569.983,0.0
55924.0,STARLINK-5849,PAYLOAD,2023-11-08 03:35:08,14.98329678,0.0002616,69.9997,274.1818,261.8927,98.1935,-2.7937e-05,-4.26e-06,0.0,0 STARLINK-5849,1 55924U 23037L   23312.14940958 -.00000426  00000-0 -27937-4 0  9997,2 55924  69.9997 274.1818 0002616 261.8927  98.1935 14.98329678 36615,6950.194,96.107,573.877,570.241,0.0
55924.0,STARLINK-5849,PAYLOAD,2023-11-08 06:47:25,14.98330275,0.0002538,70.0,273.8451,262.4818,97.6053,8.2152e-06,5e-08,0.0,0 STARLINK-5849,1 55924U 23037L   23312.28292863  .00000005  00000-0  82152-5 0  9999,2 55924  70.0000 273.8451 0002538 262.4818  97.6053 14.98330275 36295,6950.192,96.107,573.821,570.293,0.0
55924.0,STARLINK-5849,PAYLOAD,2023-11-08 22:48:45,14.9832106,0.0003004,70.0004,272.1603,263.2147,96.8671,0.00040841,4.782e-05,0.0,0 STARLINK-5849,1 55924U 23037L   23312.95052136  .00004782  00000-0  40841-3 0  9993,2 55924  70.0004 272.1603 0003004 263.2147  96.8671 14.98321060 36393,6950.221,96.108,574.173,569.998,0.0
55924.0,STARLINK-5849,PAYLOAD,2023-11-09 03:37:08,14.98336282,0.0002605,69.9998,271.6565,259.6859,100.4007,0.0004206,4.93e-05,0.0,0 STARLINK-5849,1 55924U 23037L   23313.15079290  .00004930  00000-0  42060-3 0  9996,2 55924  69.9998 271.6565 0002605 259.6859 100.4007 14.98336282 36766,6950.173,96.107,573.849,570.228,0.0
55924.0,STARLINK-5849,PAYLOAD,2023-11-09 06:49:24,14.98334894,0.0002448,69.9999,271.3188,255.6674,104.4213,0.00043997,5.161e-05,0.0,0 STARLINK-5849,1 55924U 23037L   23313.28431275  .00005161  00000-0  43997-3 0  9992,2 55924  69.9999 271.3188 0002448 255.6674 104.4213 14.98334894 36446,6950.178,96.107,573.744,570.341,0.0
55924.0,STARLINK-5849,PAYLOAD,2023-11-09 22:50:46,14.98332202,0.0002776,69.9999,269.6356,264.8028,95.2814,4.1027e-05,3.97e-06,0.0,0 STARLINK-5849,1 55924U 23037L   23313.95192363  .00000397  00000-0  41027-4 0  9997,2 55924  69.9999 269.6356 0002776 264.8028  95.2814 14.98332202 36548,6950.186,96.107,573.98,570.122,0.0
55924.0,STARLINK-5849,PAYLOAD,2023-11-10 03:39:10,14.9833485,0.0002883,69.9993,269.1317,264.1723,95.9107,-1.1957e-05,-2.36e-06,0.0,0 STARLINK-5849,1 55924U 23037L   23314.15220259 -.00000236  00000-0 -11957-4 0  9999,2 55924  69.9993 269.1317 0002883 264.1723  95.9107 14.98334850 36912,6950.178,96.107,574.047,570.039,0.0
55924.0,STARLINK-5849,PAYLOAD,2023-11-10 06:51:26,14.98335828,0.0002855,69.9994,268.795,264.9759,95.1074,-9.4488e-06,-2.06e-06,0.0,0 STARLINK-5849,1 55924U 23037L   23314.28572128 -.00000206  00000-0 -94488-5 0  9996,2 55924  69.9994 268.7950 0002855 264.9759  95.1074 14.98335828 36592,6950.175,96.107,574.024,570.056,0.0
55924.0,STARLINK-5849,PAYLOAD,2023-11-10 21:16:39,14.9833529,0.0002724,69.9996,267.2791,266.0549,94.0299,-0.00018754,-2.33e-05,0.0,0 STARLINK-5849,1 55924U 23037L   23314.88656508 -.00002330  00000-0 -18754-3 0  9997,2 55924  69.9996 267.2791 0002724 266.0549  94.0299 14.98335290 36686,6950.177,96.107,573.935,570.148,0.0
55924.0,STARLINK-5849,PAYLOAD,2023-11-11 03:41:11,14.98334156,0.0002757,69.9995,266.6059,266.7888,93.2956,-0.00018614,-2.313e-05,0.0,0 STARLINK-5849,1 55924U 23037L   23315.15360485 -.00002313  00000-0 -18614-3 0  9990,2 55924  69.9995 266.6059 0002757 266.7888  93.2956 14.98334156 37068,6950.18,96.107,573.961,570.129,0.0
55924.0,STARLINK-5849,PAYLOAD,2023-11-11 06:53:27,14.98333625,0.0002547,69.9998,266.2692,262.077,98.01,-0.00010042,-1.291e-05,0.0,0 STARLINK-5849,1 55924U 23037L   23315.28712258 -.00001291  00000-0 -10042-3 0  9994,2 55924  69.9998 266.2692 0002547 262.0770  98.0100 14.98333625 36744,6950.182,96.107,573.817,570.276,0.0
55924.0,STARLINK-5849,PAYLOAD,2023-11-11 21:18:39,14.98319526,0.0002609,70.0,264.755,272.4166,87.6694,0.00021238,2.441e-05,0.0,0 STARLINK-5849,1 55924U 23037L   23315.88795960  .00002441  00000-0  21238-3 0  9996,2 55924  70.0000 264.7550 0002609 272.4166  87.6694 14.98319526 36836,6950.225,96.108,573.904,570.277,0.0
55924.0,STARLINK-5849,PAYLOAD,2023-11-12 03:43:11,14.98330602,0.0002682,69.9997,264.0813,271.4966,88.5886,3.1745e-05,2.86e-06,0.0,0 STARLINK-5849,1 55924U 23037L   23316.15499901  .00000286  00000-0  31745-4 0  9993,2 55924  69.9997 264.0813 0002682 271.4966  88.5886 14.98330602 37215,6950.191,96.107,573.92,570.192,0.0
55924.0,STARLINK-5849,PAYLOAD,2023-11-12 06:55:27,14.98333478,0.000266,69.9998,263.7445,271.4293,88.6562,4.5252e-05,4.47e-06,0.0,0 STARLINK-5849,1 55924U 23037L   23316.28851663  .00000447  00000-0  45252-4 0  9991,2 55924  69.9998 263.7445 0002660 271.4293  88.6562 14.98333478 36891,6950.182,96.107,573.896,570.198,0.0
55924.0,STARLINK-5849,PAYLOAD,2023-11-12 21:20:40,14.98331208,0.0002675,69.9996,262.2297,271.357,88.7282,6.85e-05,7.24e-06,0.0,0 STARLINK-5849,1 55924U 23037L   23316.88935643  .00000724  00000-0  68500-4 0  9997,2 55924  69.9996 262.2297 0002675 271.3570  88.7282 14.98331208 36980,6950.189,96.107,573.913,570.195,0.0
55924.0,STARLINK-5849,PAYLOAD,2023-11-13 03:45:12,14.98339175,0.0002366,70.0001,261.5576,257.5659,102.5235,-1.2545e-05,-2.43e-06,0.0,0 STARLINK-5849,1 55924U 23037L   23317.15639298 -.00000243  00000-0 -12545-4 0  9991,2 55924  70.0001 261.5576 0002366 257.5659 102.5235 14.98339175 37360,6950.165,96.106,573.674,570.385,0.0
55924.0,STARLINK-5849,PAYLOAD,2023-11-13 06:57:28,14.98336322,0.0002675,70.0,261.2197,273.6098,86.4755,0.00013444,1.512e-05,0.0,0 STARLINK-5849,1 55924U 23037L   23317.28991059  .00001512  00000-0  13444-3 0  9997,2 55924  70.0000 261.2197 0002675 273.6098  86.4755 14.98336322 37047,6950.173,96.107,573.898,570.179,0.0
